[
    {
        "Altitude(m)": 622200.1225028799,
        "Argument of Periapsis(deg)": 0.0,
        "Eccentricity": 0.0,
        "Inclination(deg)": 60.0,
        "Latitude(deg)": -52.16258046086718,
        "Longitude(deg)": -7.639110121429822,
        "Mean Anomaly(deg)": -65.45449999999998,
        "RAAN(deg)": 140.0,
        "Satellite Name": "Test1 634",
        "Satellite Number": 634,
        "Semi-Major Axis(m)": 6980739.136638005,
        "Time(s)": 0
    },
    {
        "Altitude(m)": 622058.2897769164,
        "Argument of Periapsis(deg)": 0.00010418945913296404,
        "Eccentricity": 0.0,
        "Inclination(deg)": 60.0,
        "Latitude(deg)": -51.799328676717025,
        "Longitude(deg)": -6.87105331674544,
        "Mean Anomaly(deg)": -64.83439385453813,
        "RAAN(deg)": 139.99957995086024,
        "Satellite Name": "Test1 634",
        "Satellite Number": 634,
        "Semi-Major Axis(m)": 6980739.136638005,
        "Time(s)": 10
    }
]